[{"OBJECT_NAME":"2026-052J","OBJECT_ID":"2026-052J","EPOCH":"2026-03-24T22:44:22.532064","MEAN_MOTION":14.67554761,"ECCENTRICITY":0.05455561,"INCLINATION":97.3416,"RA_OF_ASC_NODE":159.6627,"ARG_OF_PERICENTER":344.6567,"MEAN_ANOMALY":13.8643,"EPHEMERIS_TYPE":0,"CLASSIFICATION_TYPE":"U","NORAD_CAT_ID":68206,"ELEMENT_SET_NO":999,"REV_AT_EPOCH":129,"BSTAR":0.00077300602,"MEAN_MOTION_DOT":0.00052689,"MEAN_MOTION_DDOT":2.181404e-6},{"OBJECT_NAME":"STARLINK-36986","OBJECT_ID":"2026-053A","EPOCH":"2026-03-23T18:00:02.999808","MEAN_MOTION":15.96510579,"ECCENTRICITY":0.00013665,"INCLINATION":97.2798,"RA_OF_ASC_NODE":317.5963,"ARG_OF_PERICENTER":75.8606,"MEAN_ANOMALY":330.9523,"EPHEMERIS_TYPE":0,"CLASSIFICATION_TYPE":"U","NORAD_CAT_ID":68207,"ELEMENT_SET_NO":999,"REV_AT_EPOCH":227,"BSTAR":-0.0052740041,"MEAN_MOTION_DOT":-0.02178594,"MEAN_MOTION_DDOT":0.0013470609},{"OBJECT_NAME":"STARLINK-37009","OBJECT_ID":"2026-053B","EPOCH":"2026-03-23T18:00:02.999808","MEAN_MOTION":15.9665331,"ECCENTRICITY":0.00013692,"INCLINATION":97.279,"RA_OF_ASC_NODE":317.5965,"ARG_OF_PERICENTER":82.1939,"MEAN_ANOMALY":326.2739,"EPHEMERIS_TYPE":0,"CLASSIFICATION_TYPE":"U","NORAD_CAT_ID":68208,"ELEMENT_SET_NO":999,"REV_AT_EPOCH":227,"BSTAR":-0.0052024835,"MEAN_MOTION_DOT":-0.02165852,"MEAN_MOTION_DDOT":0.0013341614},{"OBJECT_NAME":"STARLINK-36948","OBJECT_ID":"2026-053C","EPOCH":"2026-03-23T18:00:02.999808","MEAN_MOTION":15.96799505,"ECCENTRICITY":0.00013253,"INCLINATION":97.279,"RA_OF_ASC_NODE":317.5975,"ARG_OF_PERICENTER":77.4855,"MEAN_ANOMALY":332.854,"EPHEMERIS_TYPE":0,"CLASSIFICATION_TYPE":"U","NORAD_CAT_ID":68209,"ELEMENT_SET_NO":999,"REV_AT_EPOCH":216,"BSTAR":-0.0051375601,"MEAN_MOTION_DOT":-0.02155942,"MEAN_MOTION_DDOT":0.0013246998},{"OBJECT_NAME":"STARLINK-37119","OBJECT_ID":"2026-053D","EPOCH":"2026-03-23T18:00:02.999808","MEAN_MOTION":15.96951025,"ECCENTRICITY":0.00013478,"INCLINATION":97.279,"RA_OF_ASC_NODE":317.5983,"ARG_OF_PERICENTER":78.0615,"MEAN_ANOMALY":334.2663,"EPHEMERIS_TYPE":0,"CLASSIFICATION_TYPE":"U","NORAD_CAT_ID":68210,"ELEMENT_SET_NO":999,"REV_AT_EPOCH":227,"BSTAR":-0.005090219,"MEAN_MOTION_DOT":-0.02153772,"MEAN_MOTION_DDOT":0.001324452},{"OBJECT_NAME":"STARLINK-37120","OBJECT_ID":"2026-053E","EPOCH":"2026-03-23T18:00:02.999808","MEAN_MOTION":15.97103573,"ECCENTRICITY":0.00013499,"INCLINATION":97.2786,"RA_OF_ASC_NODE":317.5992,"ARG_OF_PERICENTER":73.4169,"MEAN_ANOMALY":341.0884,"EPHEMERIS_TYPE":0,"CLASSIFICATION_TYPE":"U","NORAD_CAT_ID":68211,"ELEMENT_SET_NO":999,"REV_AT_EPOCH":225,"BSTAR":-0.0050466286,"MEAN_MOTION_DOT":-0.0215315,"MEAN_MOTION_DDOT":0.0013260529},{"OBJECT_NAME":"STARLINK-37117","OBJECT_ID":"2026-053F","EPOCH":"2026-03-23T18:00:02.999808","MEAN_MOTION":15.97243516,"ECCENTRICITY":0.00013689,"INCLINATION":97.279,"RA_OF_ASC_NODE":317.6005,"ARG_OF_PERICENTER":81.8358,"MEAN_ANOMALY":334.8069,"EPHEMERIS_TYPE":0,"CLASSIFICATION_TYPE":"U","NORAD_CAT_ID":68212,"ELEMENT_SET_NO":999,"REV_AT_EPOCH":227,"BSTAR":-0.0049245031,"MEAN_MOTION_DOT":-0.02117499,"MEAN_MOTION_DDOT":0.0012863712},{"OBJECT_NAME":"STARLINK-37116","OBJECT_ID":"2026-053G","EPOCH":"2026-03-23T18:00:02.999808","MEAN_MOTION":15.97388703,"ECCENTRICITY":0.00014612,"INCLINATION":97.2785,"RA_OF_ASC_NODE":317.6008,"ARG_OF_PERICENTER":74.3274,"MEAN_ANOMALY":344.1131,"EPHEMERIS_TYPE":0,"CLASSIFICATION_TYPE":"U","NORAD_CAT_ID":68213,"ELEMENT_SET_NO":999,"REV_AT_EPOCH":227,"BSTAR":-0.0048764313,"MEAN_MOTION_DOT":-0.02113601,"MEAN_MOTION_DDOT":0.0012839935},{"OBJECT_NAME":"STARLINK-35854","OBJECT_ID":"2026-053H","EPOCH":"2026-03-23T18:00:02.999808","MEAN_MOTION":15.97549801,"ECCENTRICITY":0.00014633,"INCLINATION":97.2784,"RA_OF_ASC_NODE":317.6018,"ARG_OF_PERICENTER":76.1563,"MEAN_ANOMALY":344.4394,"EPHEMERIS_TYPE":0,"CLASSIFICATION_TYPE":"U","NORAD_CAT_ID":68214,"ELEMENT_SET_NO":999,"REV_AT_EPOCH":203,"BSTAR":-0.0049070318,"MEAN_MOTION_DOT":-0.021454,"MEAN_MOTION_DDOT":0.0013237414},{"OBJECT_NAME":"STARLINK-36272","OBJECT_ID":"2026-053J","EPOCH":"2026-03-23T18:00:02.999808","MEAN_MOTION":15.97677496,"ECCENTRICITY":0.00013198,"INCLINATION":97.2783,"RA_OF_ASC_NODE":317.6025,"ARG_OF_PERICENTER":74.6837,"MEAN_ANOMALY":347.7178,"EPHEMERIS_TYPE":0,"CLASSIFICATION_TYPE":"U","NORAD_CAT_ID":68215,"ELEMENT_SET_NO":999,"REV_AT_EPOCH":216,"BSTAR":-0.0047595252,"MEAN_MOTION_DOT":-0.02095967,"MEAN_MOTION_DDOT":0.0012678016},{"OBJECT_NAME":"STARLINK-37014","OBJECT_ID":"2026-053K","EPOCH":"2026-03-23T18:00:02.999808","MEAN_MOTION":15.97845911,"ECCENTRICITY":0.00013998,"INCLINATION":97.2782,"RA_OF_ASC_NODE":317.6033,"ARG_OF_PERICENTER":77.5243,"MEAN_ANOMALY":347.0672,"EPHEMERIS_TYPE":0,"CLASSIFICATION_TYPE":"U","NORAD_CAT_ID":68216,"ELEMENT_SET_NO":999,"REV_AT_EPOCH":227,"BSTAR":-0.004823366,"MEAN_MOTION_DOT":-0.02143391,"MEAN_MOTION_DDOT":0.001325936},{"OBJECT_NAME":"STARLINK-37011","OBJECT_ID":"2026-053L","EPOCH":"2026-03-23T18:00:02.999808","MEAN_MOTION":15.97987718,"ECCENTRICITY":0.00014774,"INCLINATION":97.2783,"RA_OF_ASC_NODE":317.6044,"ARG_OF_PERICENTER":79.6243,"MEAN_ANOMALY":346.7601,"EPHEMERIS_TYPE":0,"CLASSIFICATION_TYPE":"U","NORAD_CAT_ID":68217,"ELEMENT_SET_NO":999,"REV_AT_EPOCH":227,"BSTAR":-0.0047830603,"MEAN_MOTION_DOT":-0.02142179,"MEAN_MOTION_DDOT":0.0013266988},{"OBJECT_NAME":"STARLINK-37108","OBJECT_ID":"2026-053M","EPOCH":"2026-03-23T18:00:02.999808","MEAN_MOTION":15.98101819,"ECCENTRICITY":0.00014417,"INCLINATION":97.2782,"RA_OF_ASC_NODE":317.6049,"ARG_OF_PERICENTER":91.6419,"MEAN_ANOMALY":336.1732,"EPHEMERIS_TYPE":0,"CLASSIFICATION_TYPE":"U","NORAD_CAT_ID":68218,"ELEMENT_SET_NO":999,"REV_AT_EPOCH":227,"BSTAR":-0.0046213359,"MEAN_MOTION_DOT":-0.02083363,"MEAN_MOTION_DDOT":0.0012594443},{"OBJECT_NAME":"STARLINK-37106","OBJECT_ID":"2026-053N","EPOCH":"2026-03-23T18:00:02.999808","MEAN_MOTION":15.98238011,"ECCENTRICITY":0.00014339,"INCLINATION":97.2782,"RA_OF_ASC_NODE":317.6056,"ARG_OF_PERICENTER":76.9815,"MEAN_ANOMALY":352.6288,"EPHEMERIS_TYPE":0,"CLASSIFICATION_TYPE":"U","NORAD_CAT_ID":68219,"ELEMENT_SET_NO":999,"REV_AT_EPOCH":227,"BSTAR":-0.0045725475,"MEAN_MOTION_DOT":-0.02076994,"MEAN_MOTION_DDOT":0.0012540855},{"OBJECT_NAME":"STARLINK-37030","OBJECT_ID":"2026-053P","EPOCH":"2026-03-23T18:00:02.999808","MEAN_MOTION":15.98545768,"ECCENTRICITY":0.0001429,"INCLINATION":97.2777,"RA_OF_ASC_NODE":317.6071,"ARG_OF_PERICENTER":83.0242,"MEAN_ANOMALY":350.5991,"EPHEMERIS_TYPE":0,"CLASSIFICATION_TYPE":"U","NORAD_CAT_ID":68220,"ELEMENT_SET_NO":999,"REV_AT_EPOCH":227,"BSTAR":-0.0045945945,"MEAN_MOTION_DOT":-0.02122435,"MEAN_MOTION_DDOT":0.0013119051},{"OBJECT_NAME":"STARLINK-37012","OBJECT_ID":"2026-053Q","EPOCH":"2026-03-23T18:00:02.999808","MEAN_MOTION":15.98396022,"ECCENTRICITY":0.00014487,"INCLINATION":97.2778,"RA_OF_ASC_NODE":317.6063,"ARG_OF_PERICENTER":76.8136,"MEAN_ANOMALY":354.7645,"EPHEMERIS_TYPE":0,"CLASSIFICATION_TYPE":"U","NORAD_CAT_ID":68221,"ELEMENT_SET_NO":999,"REV_AT_EPOCH":227,"BSTAR":-0.0046197753,"MEAN_MOTION_DOT":-0.02116487,"MEAN_MOTION_DDOT":0.0013025569}]
